CCSDS_OMM_VERS = 2.0
CREATION_DATE  = 
ORIGINATOR     = 

OBJECT_NAME    = UNKNOWN
OBJECT_ID      = 
CENTER_NAME    = EARTH
REF_FRAME      = TEME
TIME_SYSTEM    = UTC
MEAN_ELEMENT_THEORY = SGP/SGP4

EPOCH          = 2025-11-08T02:22:42.211488
MEAN_MOTION    = 13.64100629
ECCENTRICITY   = .0104802
INCLINATION    = 82.6855
RA_OF_ASC_NODE = 245.8144
ARG_OF_PERICENTER = 356.8953
MEAN_ANOMALY   = 3.1533

EPHEMERIS_TYPE = 0
CLASSIFICATION_TYPE = U
NORAD_CAT_ID   = 270307
ELEMENT_SET_NO = 999
REV_AT_EPOCH   = 27218
BSTAR          = .15458326E-1
MEAN_MOTION_DOT = .12813E-3
MEAN_MOTION_DDOT = 0

CCSDS_OMM_VERS = 2.0
CREATION_DATE  = 
ORIGINATOR     = 

OBJECT_NAME    = UNKNOWN
OBJECT_ID      = 
CENTER_NAME    = EARTH
REF_FRAME      = TEME
TIME_SYSTEM    = UTC
MEAN_ELEMENT_THEORY = SGP/SGP4

EPOCH          = 2025-11-07T09:27:36.635328
MEAN_MOTION    = 12.98831314
ECCENTRICITY   = .02051741
INCLINATION    = 82.5798
RA_OF_ASC_NODE = 3.4360
ARG_OF_PERICENTER = 345.5651
MEAN_ANOMALY   = 13.9652

EPHEMERIS_TYPE = 0
CLASSIFICATION_TYPE = U
NORAD_CAT_ID   = 270308
ELEMENT_SET_NO = 999
REV_AT_EPOCH   = 26837
BSTAR          = .6219642E-2
MEAN_MOTION_DOT = .204E-4
MEAN_MOTION_DDOT = 0

CCSDS_OMM_VERS = 2.0
CREATION_DATE  = 
ORIGINATOR     = 

OBJECT_NAME    = UNKNOWN
OBJECT_ID      = 
CENTER_NAME    = EARTH
REF_FRAME      = TEME
TIME_SYSTEM    = UTC
MEAN_ELEMENT_THEORY = SGP/SGP4

EPOCH          = 2025-11-07T21:31:47.978976
MEAN_MOTION    = 14.92151651
ECCENTRICITY   = .00391687
INCLINATION    = 98.3872
RA_OF_ASC_NODE = 286.9192
ARG_OF_PERICENTER = 64.7936
MEAN_ANOMALY   = 295.7334

EPHEMERIS_TYPE = 0
CLASSIFICATION_TYPE = U
NORAD_CAT_ID   = 270309
ELEMENT_SET_NO = 999
REV_AT_EPOCH   = 26264
BSTAR          = .90420095E-3
MEAN_MOTION_DOT = .928E-4
MEAN_MOTION_DDOT = 0

CCSDS_OMM_VERS = 2.0
CREATION_DATE  = 
ORIGINATOR     = 

OBJECT_NAME    = UNKNOWN
OBJECT_ID      = 
CENTER_NAME    = EARTH
REF_FRAME      = TEME
TIME_SYSTEM    = UTC
MEAN_ELEMENT_THEORY = SGP/SGP4

EPOCH          = 2025-11-05T16:23:48.753888
MEAN_MOTION    = 14.49912688
ECCENTRICITY   = .00210482
INCLINATION    = 98.7987
RA_OF_ASC_NODE = 293.2466
ARG_OF_PERICENTER = 290.4042
MEAN_ANOMALY   = 69.4890

EPHEMERIS_TYPE = 0
CLASSIFICATION_TYPE = U
NORAD_CAT_ID   = 270311
ELEMENT_SET_NO = 999
REV_AT_EPOCH   = 24059
BSTAR          = .26724525E-2
MEAN_MOTION_DOT = .10325E-3
MEAN_MOTION_DDOT = 0

CCSDS_OMM_VERS = 2.0
CREATION_DATE  = 
ORIGINATOR     = 

OBJECT_NAME    = UNKNOWN
OBJECT_ID      = 
CENTER_NAME    = EARTH
REF_FRAME      = TEME
TIME_SYSTEM    = UTC
MEAN_ELEMENT_THEORY = SGP/SGP4

EPOCH          = 2025-11-07T06:26:49.140384
MEAN_MOTION    = 14.18162774
ECCENTRICITY   = .00285801
INCLINATION    = 98.4484
RA_OF_ASC_NODE = 314.6020
ARG_OF_PERICENTER = 235.8663
MEAN_ANOMALY   = 123.9802

EPHEMERIS_TYPE = 0
CLASSIFICATION_TYPE = U
NORAD_CAT_ID   = 270312
ELEMENT_SET_NO = 999
REV_AT_EPOCH   = 30761
BSTAR          = .38795748E-3
MEAN_MOTION_DOT = .759E-5
MEAN_MOTION_DDOT = 0

CCSDS_OMM_VERS = 2.0
CREATION_DATE  = 
ORIGINATOR     = 

OBJECT_NAME    = UNKNOWN
OBJECT_ID      = 
CENTER_NAME    = EARTH
REF_FRAME      = TEME
TIME_SYSTEM    = UTC
MEAN_ELEMENT_THEORY = SGP/SGP4

EPOCH          = 2025-11-05T10:30:55.063584
MEAN_MOTION    = 12.95156880
ECCENTRICITY   = .00279612
INCLINATION    = 90.2487
RA_OF_ASC_NODE = 6.1532
ARG_OF_PERICENTER = 76.6806
MEAN_ANOMALY   = 283.7429

EPHEMERIS_TYPE = 0
CLASSIFICATION_TYPE = U
NORAD_CAT_ID   = 270313
ELEMENT_SET_NO = 999
REV_AT_EPOCH   = 27610
BSTAR          = .784803E-3
MEAN_MOTION_DOT = .228E-5
MEAN_MOTION_DDOT = 0

CCSDS_OMM_VERS = 2.0
CREATION_DATE  = 
ORIGINATOR     = 

OBJECT_NAME    = UNKNOWN
OBJECT_ID      = 
CENTER_NAME    = EARTH
REF_FRAME      = TEME
TIME_SYSTEM    = UTC
MEAN_ELEMENT_THEORY = SGP/SGP4

EPOCH          = 2025-11-06T09:46:09.870816
MEAN_MOTION    = 12.94695922
ECCENTRICITY   = .00315315
INCLINATION    = 90.2458
RA_OF_ASC_NODE = 2.0419
ARG_OF_PERICENTER = 131.0958
MEAN_ANOMALY   = 229.2892

EPHEMERIS_TYPE = 0
CLASSIFICATION_TYPE = U
NORAD_CAT_ID   = 270314
ELEMENT_SET_NO = 999
REV_AT_EPOCH   = 26379
BSTAR          = .16938695E-2
MEAN_MOTION_DOT = .481E-5
MEAN_MOTION_DDOT = 0

CCSDS_OMM_VERS = 2.0
CREATION_DATE  = 
ORIGINATOR     = 

OBJECT_NAME    = UNKNOWN
OBJECT_ID      = 
CENTER_NAME    = EARTH
REF_FRAME      = TEME
TIME_SYSTEM    = UTC
MEAN_ELEMENT_THEORY = SGP/SGP4

EPOCH          = 2025-11-07T09:06:46.101600
MEAN_MOTION    = 14.10146605
ECCENTRICITY   = .02747827
INCLINATION    = 97.6741
RA_OF_ASC_NODE = 191.6088
ARG_OF_PERICENTER = 116.8266
MEAN_ANOMALY   = 246.1289

EPHEMERIS_TYPE = 0
CLASSIFICATION_TYPE = U
NORAD_CAT_ID   = 270315
ELEMENT_SET_NO = 999
REV_AT_EPOCH   = 27894
BSTAR          = .21241393E-2
MEAN_MOTION_DOT = .5311E-4
MEAN_MOTION_DDOT = 0

CCSDS_OMM_VERS = 2.0
CREATION_DATE  = 
ORIGINATOR     = 

OBJECT_NAME    = UNKNOWN
OBJECT_ID      = 
CENTER_NAME    = EARTH
REF_FRAME      = TEME
TIME_SYSTEM    = UTC
MEAN_ELEMENT_THEORY = SGP/SGP4

EPOCH          = 2025-11-01T14:35:59.403552
MEAN_MOTION    = 14.20368943
ECCENTRICITY   = .00049533
INCLINATION    = 81.2059
RA_OF_ASC_NODE = 77.7996
ARG_OF_PERICENTER = 63.7284
MEAN_ANOMALY   = 296.4401

EPHEMERIS_TYPE = 0
CLASSIFICATION_TYPE = U
NORAD_CAT_ID   = 270316
ELEMENT_SET_NO = 999
REV_AT_EPOCH   = 25826
BSTAR          = .18046817E-2
MEAN_MOTION_DOT = .3877E-4
MEAN_MOTION_DDOT = 0

CCSDS_OMM_VERS = 2.0
CREATION_DATE  = 
ORIGINATOR     = 

OBJECT_NAME    = UNKNOWN
OBJECT_ID      = 
CENTER_NAME    = EARTH
REF_FRAME      = TEME
TIME_SYSTEM    = UTC
MEAN_ELEMENT_THEORY = SGP/SGP4

EPOCH          = 2025-11-02T10:11:26.109600
MEAN_MOTION    = 12.93295643
ECCENTRICITY   = .00261835
INCLINATION    = 90.2472
RA_OF_ASC_NODE = 2.3120
ARG_OF_PERICENTER = 137.7776
MEAN_ANOMALY   = 222.5365

EPHEMERIS_TYPE = 0
CLASSIFICATION_TYPE = U
NORAD_CAT_ID   = 270317
ELEMENT_SET_NO = 999
REV_AT_EPOCH   = 6548
BSTAR          = .75963793E-3
MEAN_MOTION_DOT = .216E-5
MEAN_MOTION_DDOT = 0

CCSDS_OMM_VERS = 2.0
CREATION_DATE  = 
ORIGINATOR     = 

OBJECT_NAME    = UNKNOWN
OBJECT_ID      = 
CENTER_NAME    = EARTH
REF_FRAME      = TEME
TIME_SYSTEM    = UTC
MEAN_ELEMENT_THEORY = SGP/SGP4

EPOCH          = 2025-11-08T03:40:03.554688
MEAN_MOTION    = 12.51720506
ECCENTRICITY   = .04375916
INCLINATION    = 103.0831
RA_OF_ASC_NODE = 91.9506
ARG_OF_PERICENTER = 20.5704
MEAN_ANOMALY   = 341.2396

EPHEMERIS_TYPE = 0
CLASSIFICATION_TYPE = U
NORAD_CAT_ID   = 270319
ELEMENT_SET_NO = 999
REV_AT_EPOCH   = 5800
BSTAR          = .54176261E-1
MEAN_MOTION_DOT = .11939E-3
MEAN_MOTION_DDOT = 0

CCSDS_OMM_VERS = 2.0
CREATION_DATE  = 
ORIGINATOR     = 

OBJECT_NAME    = UNKNOWN
OBJECT_ID      = 
CENTER_NAME    = EARTH
REF_FRAME      = TEME
TIME_SYSTEM    = UTC
MEAN_ELEMENT_THEORY = SGP/SGP4

EPOCH          = 2025-11-07T20:40:25.925088
MEAN_MOTION    = 12.99443322
ECCENTRICITY   = .00275413
INCLINATION    = 90.2409
RA_OF_ASC_NODE = 0.3994
ARG_OF_PERICENTER = 185.3376
MEAN_ANOMALY   = 174.7456

EPHEMERIS_TYPE = 0
CLASSIFICATION_TYPE = U
NORAD_CAT_ID   = 270320
ELEMENT_SET_NO = 999
REV_AT_EPOCH   = 21588
BSTAR          = -.11707886E-2
MEAN_MOTION_DOT = -.342E-5
MEAN_MOTION_DDOT = 0

CCSDS_OMM_VERS = 2.0
CREATION_DATE  = 
ORIGINATOR     = 

OBJECT_NAME    = UNKNOWN
OBJECT_ID      = 
CENTER_NAME    = EARTH
REF_FRAME      = TEME
TIME_SYSTEM    = UTC
MEAN_ELEMENT_THEORY = SGP/SGP4

EPOCH          = 2025-10-21T14:37:32.944512
MEAN_MOTION    = 12.92622706
ECCENTRICITY   = .00315301
INCLINATION    = 90.2501
RA_OF_ASC_NODE = 1.4609
ARG_OF_PERICENTER = 184.9660
MEAN_ANOMALY   = 175.1150

EPHEMERIS_TYPE = 0
CLASSIFICATION_TYPE = U
NORAD_CAT_ID   = 270321
ELEMENT_SET_NO = 999
REV_AT_EPOCH   = 23522
BSTAR          = .5669262E-3
MEAN_MOTION_DOT = .161E-5
MEAN_MOTION_DDOT = 0

CCSDS_OMM_VERS = 2.0
CREATION_DATE  = 
ORIGINATOR     = 

OBJECT_NAME    = UNKNOWN
OBJECT_ID      = 
CENTER_NAME    = EARTH
REF_FRAME      = TEME
TIME_SYSTEM    = UTC
MEAN_ELEMENT_THEORY = SGP/SGP4

EPOCH          = 2025-11-07T20:37:15.590208
MEAN_MOTION    = 12.93096812
ECCENTRICITY   = .00324513
INCLINATION    = 90.2429
RA_OF_ASC_NODE = 1.6093
ARG_OF_PERICENTER = 137.6699
MEAN_ANOMALY   = 222.6932

EPHEMERIS_TYPE = 0
CLASSIFICATION_TYPE = U
NORAD_CAT_ID   = 270322
ELEMENT_SET_NO = 999
REV_AT_EPOCH   = 21350
BSTAR          = .65586361E-3
MEAN_MOTION_DOT = .187E-5
MEAN_MOTION_DDOT = 0

CCSDS_OMM_VERS = 2.0
CREATION_DATE  = 
ORIGINATOR     = 

OBJECT_NAME    = UNKNOWN
OBJECT_ID      = 
CENTER_NAME    = EARTH
REF_FRAME      = TEME
TIME_SYSTEM    = UTC
MEAN_ELEMENT_THEORY = SGP/SGP4

EPOCH          = 2025-11-06T06:42:01.643616
MEAN_MOTION    = 14.43348251
ECCENTRICITY   = .00403697
INCLINATION    = 81.2842
RA_OF_ASC_NODE = 144.7862
ARG_OF_PERICENTER = 187.7006
MEAN_ANOMALY   = 172.3569

EPHEMERIS_TYPE = 0
CLASSIFICATION_TYPE = U
NORAD_CAT_ID   = 270323
ELEMENT_SET_NO = 999
REV_AT_EPOCH   = 27210
BSTAR          = .45074022E-2
MEAN_MOTION_DOT = .15385E-3
MEAN_MOTION_DDOT = 0

CCSDS_OMM_VERS = 2.0
CREATION_DATE  = 
ORIGINATOR     = 

OBJECT_NAME    = UNKNOWN
OBJECT_ID      = 
CENTER_NAME    = EARTH
REF_FRAME      = TEME
TIME_SYSTEM    = UTC
MEAN_ELEMENT_THEORY = SGP/SGP4

EPOCH          = 2025-10-18T21:26:25.490976
MEAN_MOTION    = 12.32515438
ECCENTRICITY   = .06713979
INCLINATION    = 66.0307
RA_OF_ASC_NODE = 357.3496
ARG_OF_PERICENTER = 300.2492
MEAN_ANOMALY   = 53.3670

EPHEMERIS_TYPE = 0
CLASSIFICATION_TYPE = U
NORAD_CAT_ID   = 270324
ELEMENT_SET_NO = 999
REV_AT_EPOCH   = 24142
BSTAR          = .85216656E-3
MEAN_MOTION_DOT = .166E-5
MEAN_MOTION_DDOT = 0

